ONEWEB-0404             
1 50484U 21132R   26164.13519256  .00000566  00000+0  15601-2 0  9992
2 50484  87.8892  21.8737 0002153  84.2289 275.9084 13.11416501215160
ONEWEB-0405             
1 50485U 21132S   26164.18625944  .00000017  00000+0  11557-4 0  9999
2 50485  87.9172 336.2355 0001946 105.4656 254.6691 13.18686983221463
ONEWEB-0406             
1 50486U 21132T   26164.17782169 -.00000008  00000+0 -52119-4 0  9993
2 50486  87.9164 336.2539 0002363  87.4495 272.6908 13.18685370221092
ONEWEB-0407             
1 50487U 21132U   26164.17108296  .00000043  00000+0  76763-4 0  9995
2 50487  87.9169 336.2473 0001618  93.9668 266.1650 13.18685182221038
ONEWEB-0409             
1 50488U 21132V   26164.13348952  .00000603  00000+0  16662-2 0  9999
2 50488  87.8896  21.8621 0002094  86.8180 273.3187 13.11418112215056
ONEWEB-0412             
1 50489U 21132W   26164.00751645 -.00000009  00000+0 -55608-4 0  9990
2 50489  87.9166 336.2885 0001661  83.3470 276.7851 13.18684909221100
ONEWEB-0413             
1 50490U 21132X   26164.24022636 -.00001494  00000+0 -38228-2 0  9995
2 50490  87.9158 336.2428 0001984  85.7742 274.3617 13.18672215221079
ONEWEB-0414             
1 50491U 21132Y   26164.22503578  .00000033  00000+0  51390-4 0  9996
2 50491  87.9167 336.2256 0001838  86.3115 273.8227 13.18684785221108
ONEWEB-0417             
1 50492U 21132Z   26164.23346448  .00000049  00000+0  91351-4 0  9997
2 50492  87.9159 336.2439 0002071  91.5165 268.6204 13.18685413221089
ONEWEB-0418             
1 50493U 21132AA  26164.01580746  .00001035  00000+0  25921-2 0  9999
2 50493  87.9168 336.2866 0002082  91.3189 268.8182 13.18695986221117
ONEWEB-0419             
1 50494U 21132AB  26164.18610571  .00000034  00000+0  54156-4 0  9990
2 50494  87.9167 336.2519 0002096  97.2336 262.9034 13.18666153221054
ONEWEB-0420             
1 50495U 21132AC  26164.22671879 -.00000038  00000+0 -12959-3 0  9994
2 50495  87.9161 336.2475 0001649  94.5281 265.6040 13.18684859221052
ONEWEB-0421             
1 50496U 21132AD  26164.21997175  .00000103  00000+0  22948-3 0  9994
2 50496  87.9164 336.2462 0001842  80.4988 279.6352 13.18684798221092
ONEWEB-0424             
1 50497U 21132AE  26164.18119426  .00000050  00000+0  93988-4 0  9990
2 50497  87.9167 336.2516 0002033 101.0683 259.0678 13.18685697221116
ONEWEB-0426             
1 50498U 21132AF  26164.21575565  .00000012  00000+0 -23719-5 0  9990
2 50498  87.9168 336.2361 0002358  78.3251 281.8146 13.18688312221067
ONEWEB-0427             
1 50499U 21132AG  26164.17950864  .00000001  00000+0 -29078-4 0  9996
2 50499  87.9169 336.2317 0002045  90.2136 269.9231 13.18685451221083
