[{"OBJECT_NAME":"ONEWEB-0404","OBJECT_ID":"2021-132R","EPOCH":"2026-06-13T03:14:40.637184","MEAN_MOTION":13.11416501,"ECCENTRICITY":0.0002153,"INCLINATION":87.8892,"RA_OF_ASC_NODE":21.8737,"ARG_OF_PERICENTER":84.2289,"MEAN_ANOMALY":275.9084,"EPHEMERIS_TYPE":0,"CLASSIFICATION_TYPE":"U","NORAD_CAT_ID":50484,"ELEMENT_SET_NO":999,"REV_AT_EPOCH":21516,"BSTAR":0.0015601,"MEAN_MOTION_DOT":5.66e-06,"MEAN_MOTION_DDOT":0.0},{"OBJECT_NAME":"ONEWEB-0405","OBJECT_ID":"2021-132S","EPOCH":"2026-06-13T04:28:12.815616","MEAN_MOTION":13.18686983,"ECCENTRICITY":0.0001946,"INCLINATION":87.9172,"RA_OF_ASC_NODE":336.2355,"ARG_OF_PERICENTER":105.4656,"MEAN_ANOMALY":254.6691,"EPHEMERIS_TYPE":0,"CLASSIFICATION_TYPE":"U","NORAD_CAT_ID":50485,"ELEMENT_SET_NO":999,"REV_AT_EPOCH":22146,"BSTAR":1.1557000000000001e-05,"MEAN_MOTION_DOT":1.7e-07,"MEAN_MOTION_DDOT":0.0},{"OBJECT_NAME":"ONEWEB-0406","OBJECT_ID":"2021-132T","EPOCH":"2026-06-13T04:16:03.794016","MEAN_MOTION":13.1868537,"ECCENTRICITY":0.0002363,"INCLINATION":87.9164,"RA_OF_ASC_NODE":336.2539,"ARG_OF_PERICENTER":87.4495,"MEAN_ANOMALY":272.6908,"EPHEMERIS_TYPE":0,"CLASSIFICATION_TYPE":"U","NORAD_CAT_ID":50486,"ELEMENT_SET_NO":999,"REV_AT_EPOCH":22109,"BSTAR":-5.211900000000001e-05,"MEAN_MOTION_DOT":-8e-08,"MEAN_MOTION_DDOT":0.0},{"OBJECT_NAME":"ONEWEB-0407","OBJECT_ID":"2021-132U","EPOCH":"2026-06-13T04:06:21.567744","MEAN_MOTION":13.18685182,"ECCENTRICITY":0.0001618,"INCLINATION":87.9169,"RA_OF_ASC_NODE":336.2473,"ARG_OF_PERICENTER":93.9668,"MEAN_ANOMALY":266.165,"EPHEMERIS_TYPE":0,"CLASSIFICATION_TYPE":"U","NORAD_CAT_ID":50487,"ELEMENT_SET_NO":999,"REV_AT_EPOCH":22103,"BSTAR":7.676300000000001e-05,"MEAN_MOTION_DOT":4.3e-07,"MEAN_MOTION_DDOT":0.0},{"OBJECT_NAME":"ONEWEB-0409","OBJECT_ID":"2021-132V","EPOCH":"2026-06-13T03:12:13.494528","MEAN_MOTION":13.11418112,"ECCENTRICITY":0.0002094,"INCLINATION":87.8896,"RA_OF_ASC_NODE":21.8621,"ARG_OF_PERICENTER":86.818,"MEAN_ANOMALY":273.3187,"EPHEMERIS_TYPE":0,"CLASSIFICATION_TYPE":"U","NORAD_CAT_ID":50488,"ELEMENT_SET_NO":999,"REV_AT_EPOCH":21505,"BSTAR":0.0016661999999999998,"MEAN_MOTION_DOT":6.03e-06,"MEAN_MOTION_DDOT":0.0},{"OBJECT_NAME":"ONEWEB-0412","OBJECT_ID":"2021-132W","EPOCH":"2026-06-13T00:10:49.421280","MEAN_MOTION":13.18684909,"ECCENTRICITY":0.0001661,"INCLINATION":87.9166,"RA_OF_ASC_NODE":336.2885,"ARG_OF_PERICENTER":83.347,"MEAN_ANOMALY":276.7851,"EPHEMERIS_TYPE":0,"CLASSIFICATION_TYPE":"U","NORAD_CAT_ID":50489,"ELEMENT_SET_NO":999,"REV_AT_EPOCH":22110,"BSTAR":-5.560800000000001e-05,"MEAN_MOTION_DOT":-9e-08,"MEAN_MOTION_DDOT":0.0},{"OBJECT_NAME":"ONEWEB-0413","OBJECT_ID":"2021-132X","EPOCH":"2026-06-13T05:45:55.557504","MEAN_MOTION":13.18672215,"ECCENTRICITY":0.0001984,"INCLINATION":87.9158,"RA_OF_ASC_NODE":336.2428,"ARG_OF_PERICENTER":85.7742,"MEAN_ANOMALY":274.3617,"EPHEMERIS_TYPE":0,"CLASSIFICATION_TYPE":"U","NORAD_CAT_ID":50490,"ELEMENT_SET_NO":999,"REV_AT_EPOCH":22107,"BSTAR":-0.0038228000000000003,"MEAN_MOTION_DOT":-1.494e-05,"MEAN_MOTION_DDOT":0.0},{"OBJECT_NAME":"ONEWEB-0414","OBJECT_ID":"2021-132Y","EPOCH":"2026-06-13T05:24:03.091392","MEAN_MOTION":13.18684785,"ECCENTRICITY":0.0001838,"INCLINATION":87.9167,"RA_OF_ASC_NODE":336.2256,"ARG_OF_PERICENTER":86.3115,"MEAN_ANOMALY":273.8227,"EPHEMERIS_TYPE":0,"CLASSIFICATION_TYPE":"U","NORAD_CAT_ID":50491,"ELEMENT_SET_NO":999,"REV_AT_EPOCH":22110,"BSTAR":5.139000000000001e-05,"MEAN_MOTION_DOT":3.3e-07,"MEAN_MOTION_DDOT":0.0},{"OBJECT_NAME":"ONEWEB-0417","OBJECT_ID":"2021-132Z","EPOCH":"2026-06-13T05:36:11.331072","MEAN_MOTION":13.18685413,"ECCENTRICITY":0.0002071,"INCLINATION":87.9159,"RA_OF_ASC_NODE":336.2439,"ARG_OF_PERICENTER":91.5165,"MEAN_ANOMALY":268.6204,"EPHEMERIS_TYPE":0,"CLASSIFICATION_TYPE":"U","NORAD_CAT_ID":50492,"ELEMENT_SET_NO":999,"REV_AT_EPOCH":22108,"BSTAR":9.135100000000001e-05,"MEAN_MOTION_DOT":4.9e-07,"MEAN_MOTION_DDOT":0.0},{"OBJECT_NAME":"ONEWEB-0418","OBJECT_ID":"2021-132AA","EPOCH":"2026-06-13T00:22:45.764544","MEAN_MOTION":13.18695986,"ECCENTRICITY":0.0002082,"INCLINATION":87.9168,"RA_OF_ASC_NODE":336.2866,"ARG_OF_PERICENTER":91.3189,"MEAN_ANOMALY":268.8182,"EPHEMERIS_TYPE":0,"CLASSIFICATION_TYPE":"U","NORAD_CAT_ID":50493,"ELEMENT_SET_NO":999,"REV_AT_EPOCH":22111,"BSTAR":0.0025921,"MEAN_MOTION_DOT":1.035e-05,"MEAN_MOTION_DDOT":0.0},{"OBJECT_NAME":"ONEWEB-0419","OBJECT_ID":"2021-132AB","EPOCH":"2026-06-13T04:27:59.533344","MEAN_MOTION":13.18666153,"ECCENTRICITY":0.0002096,"INCLINATION":87.9167,"RA_OF_ASC_NODE":336.2519,"ARG_OF_PERICENTER":97.2336,"MEAN_ANOMALY":262.9034,"EPHEMERIS_TYPE":0,"CLASSIFICATION_TYPE":"U","NORAD_CAT_ID":50494,"ELEMENT_SET_NO":999,"REV_AT_EPOCH":22105,"BSTAR":5.415600000000001e-05,"MEAN_MOTION_DOT":3.4e-07,"MEAN_MOTION_DDOT":0.0},{"OBJECT_NAME":"ONEWEB-0420","OBJECT_ID":"2021-132AC","EPOCH":"2026-06-13T05:26:28.503456","MEAN_MOTION":13.18684859,"ECCENTRICITY":0.0001649,"INCLINATION":87.9161,"RA_OF_ASC_NODE":336.2475,"ARG_OF_PERICENTER":94.5281,"MEAN_ANOMALY":265.604,"EPHEMERIS_TYPE":0,"CLASSIFICATION_TYPE":"U","NORAD_CAT_ID":50495,"ELEMENT_SET_NO":999,"REV_AT_EPOCH":22105,"BSTAR":-0.00012959,"MEAN_MOTION_DOT":-3.8e-07,"MEAN_MOTION_DDOT":0.0},{"OBJECT_NAME":"ONEWEB-0421","OBJECT_ID":"2021-132AD","EPOCH":"2026-06-13T05:16:45.559200","MEAN_MOTION":13.18684798,"ECCENTRICITY":0.0001842,"INCLINATION":87.9164,"RA_OF_ASC_NODE":336.2462,"ARG_OF_PERICENTER":80.4988,"MEAN_ANOMALY":279.6352,"EPHEMERIS_TYPE":0,"CLASSIFICATION_TYPE":"U","NORAD_CAT_ID":50496,"ELEMENT_SET_NO":999,"REV_AT_EPOCH":22109,"BSTAR":0.00022948,"MEAN_MOTION_DOT":1.03e-06,"MEAN_MOTION_DDOT":0.0},{"OBJECT_NAME":"ONEWEB-0424","OBJECT_ID":"2021-132AE","EPOCH":"2026-06-13T04:20:55.184064","MEAN_MOTION":13.18685697,"ECCENTRICITY":0.0002033,"INCLINATION":87.9167,"RA_OF_ASC_NODE":336.2516,"ARG_OF_PERICENTER":101.0683,"MEAN_ANOMALY":259.0678,"EPHEMERIS_TYPE":0,"CLASSIFICATION_TYPE":"U","NORAD_CAT_ID":50497,"ELEMENT_SET_NO":999,"REV_AT_EPOCH":22111,"BSTAR":9.398800000000001e-05,"MEAN_MOTION_DOT":5e-07,"MEAN_MOTION_DDOT":0.0},{"OBJECT_NAME":"ONEWEB-0426","OBJECT_ID":"2021-132AF","EPOCH":"2026-06-13T05:10:41.288160","MEAN_MOTION":13.18688312,"ECCENTRICITY":0.0002358,"INCLINATION":87.9168,"RA_OF_ASC_NODE":336.2361,"ARG_OF_PERICENTER":78.3251,"MEAN_ANOMALY":281.8146,"EPHEMERIS_TYPE":0,"CLASSIFICATION_TYPE":"U","NORAD_CAT_ID":50498,"ELEMENT_SET_NO":999,"REV_AT_EPOCH":22106,"BSTAR":-2.3719e-06,"MEAN_MOTION_DOT":1.2e-07,"MEAN_MOTION_DDOT":0.0},{"OBJECT_NAME":"ONEWEB-0427","OBJECT_ID":"2021-132AG","EPOCH":"2026-06-13T04:18:29.546496","MEAN_MOTION":13.18685451,"ECCENTRICITY":0.0002045,"INCLINATION":87.9169,"RA_OF_ASC_NODE":336.2317,"ARG_OF_PERICENTER":90.2136,"MEAN_ANOMALY":269.9231,"EPHEMERIS_TYPE":0,"CLASSIFICATION_TYPE":"U","NORAD_CAT_ID":50499,"ELEMENT_SET_NO":999,"REV_AT_EPOCH":22108,"BSTAR":-2.9078e-05,"MEAN_MOTION_DOT":1e-08,"MEAN_MOTION_DDOT":0.0}]